CTC2_L_00603001-01
1 10000U 23610NV  26075.70049769  .00000000  00000+0  00000-0 0  9994
2 10000  65.0000   0.0000 0000000   0.0000   0.0000  5.94050274    11
CTC2_L_00603001-02
1 10001U 23217MN  26075.70049769  .00000000  00000+0  00000-0 0  9998
2 10001  65.0000   0.0000 0000000   0.0000  36.0000  5.94050274    11
CTC2_L_00603001-03
1 10002U 22216RT  26075.70049769  .00000000  00000+0  00000-0 0  9997
2 10002  65.0000   0.0000 0000000   0.0000  72.0000  5.94050274    12
CTC2_L_00603001-04
1 10003U 23541ZB  26075.70049769  .00000000  00000+0  00000-0 0  9990
2 10003  65.0000   0.0000 0000000   0.0000 108.0000  5.94050274    13
CTC2_L_00603001-05
1 10004U 25283R   26075.70049769  .00000000  00000+0  00000-0 0  9996
2 10004  65.0000   0.0000 0000000   0.0000 144.0000  5.94050274    14
CTC2_L_00603001-06
1 10005U 23152VW  26075.70049769  .00000000  00000+0  00000-0 0  9990
2 10005  65.0000   0.0000 0000000   0.0000 180.0000  5.94050274    15
CTC2_L_00603001-07
1 10006U 22488II  26075.70049769  .00000000  00000+0  00000-0 0  9992
2 10006  65.0000   0.0000 0000000   0.0000 216.0000  5.94050274    16
CTC2_L_00603001-08
1 10007U 22127IH  26075.70049769  .00000000  00000+0  00000-0 0  9993
2 10007  65.0000   0.0000 0000000   0.0000 252.0000  5.94050274    17
CTC2_L_00603001-09
1 10008U 23460WH  26075.70049769  .00000000  00000+0  00000-0 0  9995
2 10008  65.0000   0.0000 0000000   0.0000 288.0000  5.94050274    17
CTC2_L_00603001-10
1 10009U 22092KF  26075.70049769  .00000000  00000+0  00000-0 0  9996
2 10009  65.0000   0.0000 0000000   0.0000 324.0000  5.94050274    19
CTC2_L_00603002-01
1 10010U 24790DK  26075.70049769  .00000000  00000+0  00000-0 0  9995
2 10010  65.0000  30.0000 0000000   0.0000  12.0000  5.94050274    18
CTC2_L_00603002-02
1 10011U 26014CS  26075.70049769  .00000000  00000+0  00000-0 0  9997
2 10011  65.0000  30.0000 0000000   0.0000  48.0000  5.94050274    18
CTC2_L_00603002-03
1 10012U 26071VW  26075.70049769  .00000000  00000+0  00000-0 0  9991
2 10012  65.0000  30.0000 0000000   0.0000  84.0000  5.94050274    19
CTC2_L_00603002-04
1 10013U 24227TQ  26075.70049769  .00000000  00000+0  00000-0 0  9993
2 10013  65.0000  30.0000 0000000   0.0000 120.0000  5.94050274    11
CTC2_L_00603002-05
1 10014U 25558YO  26075.70049769  .00000000  00000+0  00000-0 0  9992
2 10014  65.0000  30.0000 0000000   0.0000 156.0000  5.94050274    11
CTC2_L_00603002-06
1 10015U 24045SP  26075.70049769  .00000000  00000+0  00000-0 0  9993
2 10015  65.0000  30.0000 0000000   0.0000 192.0000  5.94050274    12
CTC2_L_00603002-07
1 10016U 22469CA  26075.70049769  .00000000  00000+0  00000-0 0  9992
2 10016  65.0000  30.0000 0000000   0.0000 228.0000  5.94050274    13
CTC2_L_00603002-08
1 10017U 23183AF  26075.70049769  .00000000  00000+0  00000-0 0  9997
2 10017  65.0000  30.0000 0000000   0.0000 264.0000  5.94050274    14
CTC2_L_00603002-09
1 10018U 25635GZ  26075.70049769  .00000000  00000+0  00000-0 0  9992
2 10018  65.0000  30.0000 0000000   0.0000 300.0000  5.94050274    16
CTC2_L_00603002-10
1 10019U 24658PQ  26075.70049769  .00000000  00000+0  00000-0 0  9997
2 10019  65.0000  30.0000 0000000   0.0000 336.0000  5.94050274    16
CTC2_L_00603003-01
1 10020U 23898CL  26075.70049769  .00000000  00000+0  00000-0 0  9994
2 10020  65.0000  60.0000 0000000   0.0000  24.0000  5.94050274    15
CTC2_L_00603003-02
1 10021U 26381TU  26075.70049769  .00000000  00000+0  00000-0 0  9995
2 10021  65.0000  60.0000 0000000   0.0000  60.0000  5.94050274    16
CTC2_L_00603003-03
1 10022U 23609YW  26075.70049769  .00000000  00000+0  00000-0 0  9996
2 10022  65.0000  60.0000 0000000   0.0000  96.0000  5.94050274    16
CTC2_L_00603003-04
1 10023U 22123VH  26075.70049769  .00000000  00000+0  00000-0 0  9997
2 10023  65.0000  60.0000 0000000   0.0000 132.0000  5.94050274    18
CTC2_L_00603003-05
1 10024U 22283YN  26075.70049769  .00000000  00000+0  00000-0 0  9995
2 10024  65.0000  60.0000 0000000   0.0000 168.0000  5.94050274    18
CTC2_L_00603003-06
1 10025U 23491UA  26075.70049769  .00000000  00000+0  00000-0 0  9998
2 10025  65.0000  60.0000 0000000   0.0000 204.0000  5.94050274    10
CTC2_L_00603003-07
1 10026U 23505OJ  26075.70049769  .00000000  00000+0  00000-0 0  9995
2 10026  65.0000  60.0000 0000000   0.0000 240.0000  5.94050274    11
CTC2_L_00603003-08
1 10027U 22198BQ  26075.70049769  .00000000  00000+0  00000-0 0  9993
2 10027  65.0000  60.0000 0000000   0.0000 276.0000  5.94050274    11
CTC2_L_00603003-09
1 10028U 22954YE  26075.70049769  .00000000  00000+0  00000-0 0  9994
2 10028  65.0000  60.0000 0000000   0.0000 312.0000  5.94050274    13
CTC2_L_00603003-10
1 10029U 23271VL  26075.70049769  .00000000  00000+0  00000-0 0  9998
2 10029  65.0000  60.0000 0000000   0.0000 348.0000  5.94050274    13
CTC2_L_00603004-01
1 10030U 25200YP  26075.70049769  .00000000  00000+0  00000-0 0  9994
2 10030  65.0000  90.0000 0000000   0.0000  36.0000  5.94050274    12
CTC2_L_00603004-02
1 10031U 26467JV  26075.70049769  .00000000  00000+0  00000-0 0  9991
2 10031  65.0000  90.0000 0000000   0.0000  72.0000  5.94050274    13
CTC2_L_00603004-03
1 10032U 23550OQ  26075.70049769  .00000000  00000+0  00000-0 0  9992
2 10032  65.0000  90.0000 0000000   0.0000 108.0000  5.94050274    14
CTC2_L_00603004-04
1 10033U 25505XE  26075.70049769  .00000000  00000+0  00000-0 0  9995
2 10033  65.0000  90.0000 0000000   0.0000 144.0000  5.94050274    15
CTC2_L_00603004-05
1 10034U 25446KU  26075.70049769  .00000000  00000+0  00000-0 0  9990
2 10034  65.0000  90.0000 0000000   0.0000 180.0000  5.94050274    16
CTC2_L_00603004-06
1 10035U 23163MT  26075.70049769  .00000000  00000+0  00000-0 0  9995
2 10035  65.0000  90.0000 0000000   0.0000 216.0000  5.94050274    17
CTC2_L_00603004-07
1 10036U 23214DP  26075.70049769  .00000000  00000+0  00000-0 0  9993
2 10036  65.0000  90.0000 0000000   0.0000 252.0000  5.94050274    18
CTC2_L_00603004-08
1 10037U 24143BX  26075.70049769  .00000000  00000+0  00000-0 0  9996
2 10037  65.0000  90.0000 0000000   0.0000 288.0000  5.94050274    18
CTC2_L_00603004-09
1 10038U 26730NL  26075.70049769  .00000000  00000+0  00000-0 0  9991
2 10038  65.0000  90.0000 0000000   0.0000 324.0000  5.94050274    10
CTC2_L_00603004-10
1 10039U 26568DX  26075.70049769  .00000000  00000+0  00000-0 0  9991
2 10039  65.0000  90.0000 0000000   0.0000   0.0000  5.94050274    12
CTC2_L_00603005-01
1 10040U 26690SL  26075.70049769  .00000000  00000+0  00000-0 0  9999
2 10040  65.0000 120.0000 0000000   0.0000  48.0000  5.94050274    10
CTC2_L_00603005-02
1 10041U 22904UT  26075.70049769  .00000000  00000+0  00000-0 0  9994
2 10041  65.0000 120.0000 0000000   0.0000  84.0000  5.94050274    11
CTC2_L_00603005-03
1 10042U 26943LP  26075.70049769  .00000000  00000+0  00000-0 0  9992
2 10042  65.0000 120.0000 0000000   0.0000 120.0000  5.94050274    13
CTC2_L_00603005-04
1 10043U 22944BV  26075.70049769  .00000000  00000+0  00000-0 0  9990
2 10043  65.0000 120.0000 0000000   0.0000 156.0000  5.94050274    13
CTC2_L_00603005-05
1 10044U 22578FK  26075.70049769  .00000000  00000+0  00000-0 0  9994
2 10044  65.0000 120.0000 0000000   0.0000 192.0000  5.94050274    14
CTC2_L_00603005-06
1 10045U 25001OC  26075.70049769  .00000000  00000+0  00000-0 0  9999
2 10045  65.0000 120.0000 0000000   0.0000 228.0000  5.94050274    15
CTC2_L_00603005-07
1 10046U 22002YW  26075.70049769  .00000000  00000+0  00000-0 0  9998
2 10046  65.0000 120.0000 0000000   0.0000 264.0000  5.94050274    16
CTC2_L_00603005-08
1 10047U 25461KI  26075.70049769  .00000000  00000+0  00000-0 0  9991
2 10047  65.0000 120.0000 0000000   0.0000 300.0000  5.94050274    18
CTC2_L_00603005-09
1 10048U 23974LB  26075.70049769  .00000000  00000+0  00000-0 0  9999
2 10048  65.0000 120.0000 0000000   0.0000 336.0000  5.94050274    18
CTC2_L_00603005-10
1 10049U 26524EN  26075.70049769  .00000000  00000+0  00000-0 0  9994
2 10049  65.0000 120.0000 0000000   0.0000  12.0000  5.94050274    10
CTC2_L_00603006-01
1 10050U 24520VS  26075.70049769  .00000000  00000+0  00000-0 0  9990
2 10050  65.0000 150.0000 0000000   0.0000  60.0000  5.94050274    18
CTC2_L_00603006-02
1 10051U 25728LH  26075.70049769  .00000000  00000+0  00000-0 0  9992
2 10051  65.0000 150.0000 0000000   0.0000  96.0000  5.94050274    18
CTC2_L_00603006-03
1 10052U 25444ZW  26075.70049769  .00000000  00000+0  00000-0 0  9998
2 10052  65.0000 150.0000 0000000   0.0000 132.0000  5.94050274    10
CTC2_L_00603006-04
1 10053U 23011EF  26075.70049769  .00000000  00000+0  00000-0 0  9997
2 10053  65.0000 150.0000 0000000   0.0000 168.0000  5.94050274    10
CTC2_L_00603006-05
1 10054U 24728MG  26075.70049769  .00000000  00000+0  00000-0 0  9994
2 10054  65.0000 150.0000 0000000   0.0000 204.0000  5.94050274    12
CTC2_L_00603006-06
1 10055U 26527FR  26075.70049769  .00000000  00000+0  00000-0 0  9994
2 10055  65.0000 150.0000 0000000   0.0000 240.0000  5.94050274    13
CTC2_L_00603006-07
1 10056U 22659SH  26075.70049769  .00000000  00000+0  00000-0 0  9997
2 10056  65.0000 150.0000 0000000   0.0000 276.0000  5.94050274    13
CTC2_L_00603006-08
1 10057U 26104YO  26075.70049769  .00000000  00000+0  00000-0 0  9997
2 10057  65.0000 150.0000 0000000   0.0000 312.0000  5.94050274    15
CTC2_L_00603006-09
1 10058U 23159NN  26075.70049769  .00000000  00000+0  00000-0 0  9995
2 10058  65.0000 150.0000 0000000   0.0000 348.0000  5.94050274    15
CTC2_L_00603006-10
1 10059U 24742SV  26075.70049769  .00000000  00000+0  00000-0 0  9995
2 10059  65.0000 150.0000 0000000   0.0000  24.0000  5.94050274    17
CTC2_L_00603007-01
1 10060U 23663GQ  26075.70049769  .00000000  00000+0  00000-0 0  9998
2 10060  65.0000 180.0000 0000000   0.0000  72.0000  5.94050274    15
CTC2_L_00603007-02
1 10061U 24231KV  26075.70049769  .00000000  00000+0  00000-0 0  9991
2 10061  65.0000 180.0000 0000000   0.0000 108.0000  5.94050274    16
